# From MPC106342
C/1995 O1 (Hale-Bopp),e,89.0338,283.2677,130.5218,178.8058,0.0004122,0.99494964,0.0000,03/29.7432/1997,2000,g -2.0,4.0
# From NK 1615
P/1996 R2 (Lagerkvist),e,2.6004,40.0266,333.3153,3.775013,0.1343775,0.31412275,101.7614,03/10.0/2021,2000,g 11.5,4.0
# From MPC 30063
P/1997 B1 (Kobayashi),e,12.3395,328.8824,183.3486,8.571136,0.0392777,0.76015981,344.9259,03/10.0/2021,2000,g 15.0,2.0
# From MPC 75703
P/1998 VS24 (LINEAR),e,5.0257,159.0329,244.6474,4.528928,0.1022612,0.24212119,117.2899,03/10.0/2021,2000,g 13.0,2.0
# From NK 731
P/1999 RO28 (LONEOS),e,7.5671,137.8847,231.2654,3.426730,0.1553761,0.67214151,96.7730,03/10.0/2021,2000,g 20.0,2.0
# From MPC 75704
P/1999 XN120 (Catalina),e,5.0296,285.2963,161.8673,4.179030,0.1153694,0.21026739,157.9169,03/10.0/2021,2000,g 13.5,2.0
# From NK 744
P/2000 R2 (LINEAR),e,11.6853,160.2906,176.5274,3.466370,0.1527185,0.53159512,96.4474,03/10.0/2021,2000,g 18.0,4.0
# From MPC 43019
P/2001 H5 (NEAT),e,8.3669,328.6835,224.8612,6.098017,0.0654517,0.59853896,128.8848,03/10.0/2021,2000,g 12.0,4.0
# From MPC 75704
P/2001 Q6 (NEAT),e,56.9057,22.1435,42.9367,7.952167,0.0439517,0.82288529,312.2709,03/10.0/2021,2000,g 13.5,4.0
# From MPC 47727
P/2002 EJ57 (LINEAR),e,4.9762,330.3268,167.3662,6.472011,0.0598612,0.59258395,59.6069,03/10.0/2021,2000,g 12.5,4.0
# From MPC109588
P/2002 T6 (NEAT-LINEAR),e,10.8346,206.3605,219.6370,7.676634,0.0463391,0.56035221,302.9581,03/10.0/2021,2000,g 10.5,4.0
# From MPC 75007
C/2002 VQ94 (LINEAR),e,70.5871,35.0326,100.1477,185.4876,0.0003902,0.96316426,2.1539,03/10.0/2021,2000,g  9.5,2.0
# From MPC 50354
P/2003 F2 (NEAT),e,11.6048,359.0549,192.0008,6.494740,0.0595472,0.54232172,28.7912,03/10.0/2021,2000,g 16.5,2.0
# From MPC 50139
P/2003 QX29 (NEAT),e,11.3899,264.5795,37.4470,8.030128,0.0433132,0.47300240,290.3044,03/10.0/2021,2000,g  8.5,4.0
# From MPC105235
P/2003 T12 (SOHO),e,11.0180,174.5743,219.7631,2.586071,0.2369973,0.76968976,72.7882,03/10.0/2021,2000,g 17.0,4.0
# From MPC 82312
P/2004 A1 (LONEOS),e,10.5516,124.8467,21.3619,7.958297,0.0439009,0.30931994,265.8670,03/10.0/2021,2000,g  6.5,4.0
# From MPC 54558
P/2004 DO29 (Spacewatch-LINEAR),e,14.5320,147.3754,40.7003,7.284006,0.0501359,0.44122594,300.7062,03/10.0/2021,2000,g 13.5,2.0
# From MPC 54823
P/2004 FY140 (LINEAR),e,2.1348,326.7605,242.4355,4.902484,0.0907987,0.16842928,186.6702,03/10.0/2021,2000,g 12.5,2.0
# From MPC 53304
P/2004 R3 (LINEAR-NEAT),e,12.8196,305.4804,38.2774,4.797841,0.0937854,0.26103735,341.3271,03/10.0/2021,2000,g 14.5,4.0
# From MPC 55521
P/2004 V3 (Siding Spring),e,50.4372,356.1200,322.3254,7.142467,0.0516335,0.44634553,309.0354,03/10.0/2021,2000,g 11.5,4.0
# From MPC 75705
P/2004 V5 (LINEAR-Hill),e,19.3435,47.7774,87.7433,7.977792,0.0437401,0.44354383,257.0756,03/10.0/2021,2000,g  8.0,4.0
# From MPC 54164
P/2005 E1 (Tubbiolo),e,4.2637,335.5688,194.0924,7.038901,0.0527773,0.37514362,310.7166,03/10.0/2021,2000,g 10.0,4.0
# From MPC 54823
P/2005 GF8 (LONEOS),e,1.1925,314.8199,284.9134,5.848153,0.0696909,0.51778695,36.8051,03/10.0/2021,2000,g 11.5,4.0
# From MPC 79019
P/2005 J1 (McNaught),e,31.7642,268.8073,338.9614,3.570132,0.1461093,0.56975123,128.4857,03/10.0/2021,2000,g 16.5,4.0
# From MPC 74246
P/2005 L1 (McNaught),e,7.7385,138.2481,149.7147,3.975320,0.1243500,0.20943175,330.4431,03/10.0/2021,2000,g  9.5,4.0
# From MPC 75706
P/2005 S2 (Skiff),e,3.1357,161.2031,229.1520,8.016171,0.0434264,0.19715898,235.3677,03/10.0/2021,2000,g  7.5,4.0
# From MPC 75706
P/2005 SB216 (LONEOS),e,24.0790,1.2135,83.3767,7.129424,0.0517753,0.46351084,268.0371,03/10.0/2021,2000,g 12.0,2.0
# From MPC 55717
P/2005 T2 (Christensen),e,8.2925,260.1584,58.8217,3.846198,0.1306642,0.41639247,43.8523,03/10.0/2021,2000,g 14.5,4.0
# From MPC 73461
P/2005 T3 (Read),e,6.2241,27.7277,6.9065,7.580257,0.0472257,0.17418738,266.0276,03/10.0/2021,2000,g  9.0,4.0
# From MPC 73461
P/2005 T4 (SWAN),e,160.1975,25.7144,41.6186,9.361183,0.0344118,0.92983050,194.1092,03/10.0/2021,2000,g 15.0,4.0
# From MPC 75706
P/2005 T5 (Broughton),e,21.3567,57.0044,304.5447,7.290585,0.0500680,0.55216973,282.0217,03/10.0/2021,2000,g 11.0,4.0
# From MPC 56954
P/2005 W3 (Kowalski),e,16.4195,210.0861,200.7111,6.329795,0.0618899,0.54340347,347.9420,03/10.0/2021,2000,g 12.0,4.0
# From MPC 75706
P/2005 Y2 (McNaught),e,19.0762,94.4768,193.9686,6.387765,0.0610493,0.47082295,8.5915,03/10.0/2021,2000,g  9.0,4.0
# From MPC 56954
P/2006 F4 (Spacewatch),e,12.4128,183.8473,31.0693,3.524508,0.1489554,0.33969940,87.2104,03/10.0/2021,2000,g 15.0,4.0
# From MPC 75707
P/2006 HR30 (Siding Spring),e,31.8294,309.9036,117.2880,7.811278,0.0451462,0.84215897,234.7985,03/10.0/2021,2000,g 11.0,4.0
# From MPC 75707
P/2006 S4 (Christensen),e,39.5329,36.0882,305.1456,6.313866,0.0621242,0.50819251,340.7021,03/10.0/2021,2000,g 11.0,4.0
# From MPC 75707
P/2007 A2 (Christensen),e,26.4877,300.9067,186.7443,6.326469,0.0619387,0.55765754,321.0212,03/10.0/2021,2000,g 13.5,4.0
# From MPC 75707
P/2007 C2 (Catalina),e,8.6467,275.5705,179.9726,6.992768,0.0533004,0.47048538,261.7654,03/10.0/2021,2000,g 10.0,4.0
# From MPC 84315
C/2007 D1 (LINEAR),e,41.5017,171.1949,340.0599,1474,0.0000174,0.99401059,0.0000,06/09.0198/2007,2000,g  3.5,4.0
# From MPC 82314
P/2007 K2 (Gibbs),e,7.6342,188.6446,347.4542,7.264161,0.0503415,0.68320333,253.1501,03/10.0/2021,2000,g 14.0,4.0
# From MPC 60925
P/2007 Q2 (Gilmore),e,10.2027,172.1601,162.7748,5.653023,0.0733302,0.67014799,7.5553,03/10.0/2021,2000,g 16.0,4.0
# From MPC 75708
P/2007 R4 (Garradd),e,20.2195,87.2202,282.6179,5.931879,0.0682206,0.67013244,341.3222,03/10.0/2021,2000,g 14.5,4.0
# From MPC 73462
P/2007 S1 (Zhao),e,5.9636,141.3746,245.6770,3.814430,0.1322999,0.33958391,283.6107,03/10.0/2021,2000,g 13.0,4.0
# From MPC 61994
P/2007 T2 (Kowalski),e,9.7470,3.3746,359.6370,3.047041,0.1853048,0.78532475,177.9238,03/10.0/2021,2000,g 18.5,4.0
# From MPC 75708
P/2008 CL94 (Lemmon),e,8.3468,33.3258,80.4692,6.161791,0.0644382,0.12036375,347.4267,03/10.0/2021,2000,g  8.0,4.0
# From MPC 75709
P/2008 L2 (Hill),e,25.8596,218.0068,141.2174,6.028598,0.0665855,0.61312432,307.2533,03/10.0/2021,2000,g 12.5,4.0
# From MPC 64114
P/2008 O3 (Boattini),e,32.2612,47.5920,341.0931,8.222163,0.0418047,0.69528250,195.3747,03/10.0/2021,2000,g 13.0,4.0
# From MPC 75709
P/2008 QP20 (LINEAR-Hill),e,7.5226,322.0728,75.5656,3.553790,0.1471182,0.49202251,316.1399,03/10.0/2021,2000,g 15.5,4.0
# From MPC 66204
P/2008 WZ96 (LINEAR),e,7.1113,56.4566,341.9045,3.488776,0.1512497,0.47007571,334.3272,03/10.0/2021,2000,g 13.5,4.0
# From MPC 75710
P/2008 Y3 (McNaught),e,38.7648,262.7962,238.2366,8.046483,0.0431812,0.44547382,192.5435,03/10.0/2021,2000,g  8.5,4.0
# From MPC 75710
P/2009 B1 (Boattini),e,22.2195,297.0910,128.8844,6.736515,0.0563704,0.63474652,250.5920,03/10.0/2021,2000,g 13.0,4.0
# From MPC 66466
C/2009 G1 (STEREO),e,108.7431,120.4351,175.4068,432.3688,0.0001096,0.99737287,0.0000,04/15.5497/2009,2000,g  9.0,4.0
# From MPC 75710
P/2009 O3 (Hill),e,16.2696,183.7083,154.4050,7.769841,0.0455078,0.68767185,196.1615,03/10.0/2021,2000,g 12.5,4.0
# From MPC 98557
P/2009 Q1 (Hill),e,14.5056,173.9599,157.1270,5.520645,0.0759835,0.49486538,326.5572,03/10.0/2021,2000,g 11.5,4.0
# From MPC 68902
P/2009 Q5 (McNaught),e,40.9799,160.2696,209.0226,7.436971,0.0485971,0.60888413,204.3603,03/10.0/2021,2000,g 10.0,4.0
# From MPC112389
P/2009 T2 (La Sagra),e,27.5555,215.8065,216.4013,7.723790,0.0459154,0.76522466,187.8315,03/10.0/2021,2000,g 14.0,4.0
# From MPC 75711
P/2009 U4 (McNaught),e,10.0805,55.3515,259.8374,5.083421,0.0859944,0.67609246,3.1737,03/10.0/2021,2000,g 14.0,4.0
# From MPC105235
P/2009 WX51 (Catalina),e,9.5953,31.6824,118.0761,3.080560,0.1822886,0.74029259,20.7147,03/10.0/2021,2000,g 19.0,2.0
# From MPC 74247
P/2009 Y2 (Kowalski),e,29.9312,262.0246,172.1569,6.549582,0.0588009,0.63594450,236.7686,03/10.0/2021,2000,g 13.0,4.0
# From MPC 75711
P/2010 A3 (Hill),e,14.8502,63.9782,42.0324,6.076791,0.0657950,0.73338768,263.6599,03/10.0/2021,2000,g 14.0,4.0
# From MPC 75008
P/2010 C1 (Scotti),e,9.1281,141.8859,3.7244,7.103286,0.0520613,0.25868496,215.2094,03/10.0/2021,2000,g  9.5,4.0
# From MPC 75008
P/2010 D2 (WISE),e,57.0847,319.8918,120.0656,6.716345,0.0566245,0.45092323,228.8406,03/10.0/2021,2000,g 16.0,4.0
# From MPC 75009
P/2010 E2 (Jarnac),e,15.4003,177.8242,8.3666,8.638615,0.0388184,0.72004523,155.0679,03/10.0/2021,2000,g 14.0,4.0
# From MPC 72851
P/2010 H2 (Vales),e,14.2735,64.2016,128.1544,3.833971,0.1312898,0.19575840,167.8063,03/10.0/2021,2000,g  6.0,4.0
# From MPC 70361
P/2010 H3 (SOHO),e,23.0873,77.1009,26.1384,3.037973,0.1861351,0.98538516,0.0000,02/07.9651/2021,2000,g 20.0,2.0
# From MPC 73463
P/2010 H4 (Scotti),e,2.3187,44.7434,179.5494,6.590815,0.0582499,0.26732824,228.1526,03/10.0/2021,2000,g 10.5,4.0
# From MPC 74637
P/2010 H5 (Scotti),e,14.0649,24.8070,175.2356,7.160517,0.0514384,0.15340753,205.2245,03/10.0/2021,2000,g 13.0,2.0
# From MPC 98558
P/2010 J3 (McMillan),e,13.2878,106.4134,157.5931,8.971669,0.0366770,0.72707071,141.0264,03/10.0/2021,2000,g 11.0,4.0
# From MPC 84315
P/2010 JC81 (WISE),e,38.7365,30.8457,12.4353,8.110281,0.0426727,0.77686873,154.1539,03/10.0/2021,2000,g  9.0,4.0
# From MPC 74248
P/2010 T2 (PANSTARRS),e,7.9046,58.9560,353.5185,5.522303,0.0759493,0.32148591,275.6824,03/10.0/2021,2000,g 11.5,4.0
# From MPC 98558
P/2010 TO20 (LINEAR-Grauer),e,2.4790,43.2955,266.7729,5.830016,0.0700164,0.05481506,316.6228,03/10.0/2021,2000,g  9.0,4.0
# From MPC 82316
P/2010 U1 (Boattini),e,8.2146,280.7126,85.9299,6.510754,0.0593277,0.24823769,241.0478,03/10.0/2021,2000,g  9.5,4.0
# From MPC119994
C/2010 U3 (Boattini),e,55.5248,43.0268,88.0664,2320,0.0000088,0.99636089,0.0000,02/25.7360/2019,2000,g  1.0,4.0
# From MPC 79021
P/2010 UH55 (Spacewatch),e,8.0433,232.9658,225.1807,6.651949,0.0574488,0.56340912,207.9524,03/10.0/2021,2000,g 11.0,4.0
# From MPC 75009
P/2010 WK (LINEAR),e,11.4008,11.3196,40.9784,5.760893,0.0712803,0.68986863,272.3075,03/10.0/2021,2000,g 14.5,2.0
# From MPC 82317
